start=new Date('2022-08-23T00:00:00.000Z').valueOf();
sats=[{"FILE":"3544080","CENTER_NAME":"EARTH","PERIAPSIS":"409.851","MEAN_MOTION":"15.52016022","GP_ID":"210752994","OBJECT_TYPE":"PAYLOAD","RA_OF_ASC_NODE":"150.7529","MEAN_MOTION_DDOT":"0.0000000000000","ELEMENT_SET_NO":"999","APOAPSIS":"411.834","MEAN_MOTION_DOT":"-0.01058324","OBJECT_NAME":"STARLINK-4256","PERIOD":"92.783","RCS_SIZE":"LARGE","ECCENTRICITY":"0.00014610","REV_AT_EPOCH":"778","COUNTRY_CODE":"US","EPOCH":"2022-08-22T22:00:00.999936","INCLINATION":"53.2176","NORAD_CAT_ID":"52994","SITE":"AFETR","TLE_LINE1":"1 52994U 22076J   22234.91667824 -.01058324  00000-0 -19021-1 0  9991","SEMIMAJOR_AXIS":"6788.978","LAUNCH_DATE":"2022-07-07","ARG_OF_PERICENTER":"53.6866","EPHEMERIS_TYPE":"0","OBJECT_ID":"2022-076J","REF_FRAME":"TEME","TIME_SYSTEM":"UTC","MEAN_ANOMALY":"100.9822","DECAY_DATE":null,"BSTAR":"-0.01902100000000","MEAN_ELEMENT_THEORY":"SGP4","TLE_LINE2":"2 52994  53.2176 150.7529 0001461  53.6866 100.9822 15.52016022  7788","CLASSIFICATION_TYPE":"U"},{"GP_ID":"210779557","OBJECT_TYPE":"PAYLOAD","MEAN_MOTION":"15.52029683","CENTER_NAME":"EARTH","PERIAPSIS":"409.582","FILE":"3544179","APOAPSIS":"412.023","ELEMENT_SET_NO":"999","MEAN_MOTION_DOT":"-0.01058086","RA_OF_ASC_NODE":"150.7769","MEAN_MOTION_DDOT":"0.0000000000000","RCS_SIZE":"LARGE","ECCENTRICITY":"0.00017980","PERIOD":"92.782","OBJECT_NAME":"STARLINK-4296","INCLINATION":"53.2176","EPOCH":"2022-08-22T22:00:00.999936","REV_AT_EPOCH":"130","COUNTRY_CODE":"US","ARG_OF_PERICENTER":"37.2301","TLE_LINE1":"1 52995U 22076K   22234.91667824 -.01058086  00000-0 -19005-1 0  9999","SEMIMAJOR_AXIS":"6788.938","LAUNCH_DATE":"2022-07-07","SITE":"AFETR","NORAD_CAT_ID":"52995","MEAN_ANOMALY":"119.0786","DECAY_DATE":null,"BSTAR":"-0.01900500000000","TIME_SYSTEM":"UTC","OBJECT_ID":"2022-076K","REF_FRAME":"TEME","EPHEMERIS_TYPE":"0","MEAN_ELEMENT_THEORY":"SGP4","CLASSIFICATION_TYPE":"U","TLE_LINE2":"2 52995  53.2176 150.7769 0001798  37.2301 119.0786 15.52029683  1309"},{"MEAN_ELEMENT_THEORY":"SGP4","TLE_LINE2":"2 52996  53.2176 150.7648 0001480  52.4036 103.0851 15.52022917  1307","CLASSIFICATION_TYPE":"U","TLE_LINE1":"1 52996U 22076L   22234.91667824 -.01058317  00000-0 -19016-1 0  9999","SEMIMAJOR_AXIS":"6788.957","LAUNCH_DATE":"2022-07-07","ARG_OF_PERICENTER":"52.4036","SITE":"AFETR","NORAD_CAT_ID":"52996","TIME_SYSTEM":"UTC","DECAY_DATE":null,"MEAN_ANOMALY":"103.0851","BSTAR":"-0.01901600000000","EPHEMERIS_TYPE":"0","OBJECT_ID":"2022-076L","REF_FRAME":"TEME","PERIOD":"92.782","RCS_SIZE":"LARGE","ECCENTRICITY":"0.00014800","OBJECT_NAME":"STARLINK-4295","EPOCH":"2022-08-22T22:00:00.999936","INCLINATION":"53.2176","REV_AT_EPOCH":"130","COUNTRY_CODE":"US","MEAN_MOTION":"15.52022917","GP_ID":"210780404","OBJECT_TYPE":"PAYLOAD","FILE":"3544179","PERIAPSIS":"409.818","CENTER_NAME":"EARTH","APOAPSIS":"411.827","ELEMENT_SET_NO":"999","MEAN_MOTION_DOT":"-0.01058317","RA_OF_ASC_NODE":"150.7648","MEAN_MOTION_DDOT":"0.0000000000000"},{"TLE_LINE2":"2 52997  53.2176 150.8106 0001909  33.7799 125.8082 15.52057070  7786","CLASSIFICATION_TYPE":"U","MEAN_ELEMENT_THEORY":"SGP4","MEAN_ANOMALY":"125.8082","DECAY_DATE":null,"BSTAR":"-0.01898400000000","TIME_SYSTEM":"UTC","OBJECT_ID":"2022-076M","REF_FRAME":"TEME","EPHEMERIS_TYPE":"0","ARG_OF_PERICENTER":"33.7799","TLE_LINE1":"1 52997U 22076M   22234.91667824 -.01058009  00000-0 -18984-1 0  9991","SEMIMAJOR_AXIS":"6788.858","LAUNCH_DATE":"2022-07-07","SITE":"AFETR","NORAD_CAT_ID":"52997","INCLINATION":"53.2176","EPOCH":"2022-08-22T22:00:00.999936","REV_AT_EPOCH":"778","COUNTRY_CODE":"US","RCS_SIZE":"LARGE","ECCENTRICITY":"0.00019090","PERIOD":"92.780","OBJECT_NAME":"STARLINK-4301","ELEMENT_SET_NO":"999","APOAPSIS":"412.019","MEAN_MOTION_DOT":"-0.01058009","MEAN_MOTION_DDOT":"0.0000000000000","RA_OF_ASC_NODE":"150.8106","GP_ID":"210752489","OBJECT_TYPE":"PAYLOAD","MEAN_MOTION":"15.52057070","CENTER_NAME":"EARTH","PERIAPSIS":"409.427","FILE":"3544080"},{"TLE_LINE1":"1 52998U 22076N   22234.91667824 -.01058692  00000-0 -19015-1 0  9996","SEMIMAJOR_AXIS":"6788.917","LAUNCH_DATE":"2022-07-07","ARG_OF_PERICENTER":"84.5878","SITE":"AFETR","NORAD_CAT_ID":"52998","TIME_SYSTEM":"UTC","DECAY_DATE":null,"BSTAR":"-0.01901500000000","MEAN_ANOMALY":"72.5408","EPHEMERIS_TYPE":"0","OBJECT_ID":"2022-076N","REF_FRAME":"TEME","MEAN_ELEMENT_THEORY":"SGP4","TLE_LINE2":"2 52998  53.2176 150.7849 0001250  84.5878  72.5408 15.52036957  7782","CLASSIFICATION_TYPE":"U","MEAN_MOTION":"15.52036957","GP_ID":"210752995","OBJECT_TYPE":"PAYLOAD","FILE":"3544080","CENTER_NAME":"EARTH","PERIAPSIS":"409.933","APOAPSIS":"411.630","ELEMENT_SET_NO":"999","MEAN_MOTION_DOT":"-0.01058692","MEAN_MOTION_DDOT":"0.0000000000000","RA_OF_ASC_NODE":"150.7849","PERIOD":"92.781","RCS_SIZE":"LARGE","ECCENTRICITY":"0.00012500","OBJECT_NAME":"STARLINK-4254","EPOCH":"2022-08-22T22:00:00.999936","INCLINATION":"53.2176","REV_AT_EPOCH":"778","COUNTRY_CODE":"US"},{"MEAN_ELEMENT_THEORY":"SGP4","TLE_LINE2":"2 52999  53.2177 150.8343 0001264  80.0446  81.1824 15.52071294  7782","CLASSIFICATION_TYPE":"U","SITE":"AFETR","NORAD_CAT_ID":"52999","TLE_LINE1":"1 52999U 22076P   22234.91667824 -.01058576  00000-0 -18989-1 0  9997","LAUNCH_DATE":"2022-07-07","SEMIMAJOR_AXIS":"6788.816","ARG_OF_PERICENTER":"80.0446","EPHEMERIS_TYPE":"0","OBJECT_ID":"2022-076P","REF_FRAME":"TEME","TIME_SYSTEM":"UTC","DECAY_DATE":null,"MEAN_ANOMALY":"81.1824","BSTAR":"-0.01898900000000","OBJECT_NAME":"STARLINK-4217","PERIOD":"92.779","RCS_SIZE":"LARGE","ECCENTRICITY":"0.00012640","REV_AT_EPOCH":"778","COUNTRY_CODE":"US","EPOCH":"2022-08-22T22:00:00.999936","INCLINATION":"53.2177","FILE":"3544080","CENTER_NAME":"EARTH","PERIAPSIS":"409.823","MEAN_MOTION":"15.52071294","GP_ID":"210752993","OBJECT_TYPE":"PAYLOAD","RA_OF_ASC_NODE":"150.8343","MEAN_MOTION_DDOT":"0.0000000000000","ELEMENT_SET_NO":"999","APOAPSIS":"411.540","MEAN_MOTION_DOT":"-0.01058576"},{"PERIOD":"92.781","RCS_SIZE":"LARGE","ECCENTRICITY":"0.00014620","OBJECT_NAME":"STARLINK-4194","EPOCH":"2022-08-22T22:00:00.999936","INCLINATION":"53.2176","REV_AT_EPOCH":"778","COUNTRY_CODE":"US","MEAN_MOTION":"15.52043423","GP_ID":"210752997","OBJECT_TYPE":"PAYLOAD","FILE":"3544080","CENTER_NAME":"EARTH","PERIAPSIS":"409.770","ELEMENT_SET_NO":"999","APOAPSIS":"411.755","MEAN_MOTION_DOT":"-0.01058267","MEAN_MOTION_DDOT":"0.0000000000000","RA_OF_ASC_NODE":"150.7869","MEAN_ELEMENT_THEORY":"SGP4","CLASSIFICATION_TYPE":"U","TLE_LINE2":"2 53000  53.2176 150.7869 0001462  53.9007 104.0480 15.52043423  7785","TLE_LINE1":"1 53000U 22076Q   22234.91667824 -.01058267  00000-0 -19001-1 0  9994","SEMIMAJOR_AXIS":"6788.898","LAUNCH_DATE":"2022-07-07","ARG_OF_PERICENTER":"53.9007","SITE":"AFETR","NORAD_CAT_ID":"53000","TIME_SYSTEM":"UTC","MEAN_ANOMALY":"104.0480","DECAY_DATE":null,"BSTAR":"-0.01900100000000","EPHEMERIS_TYPE":"0","OBJECT_ID":"2022-076Q","REF_FRAME":"TEME"},{"PERIOD":"92.779","ECCENTRICITY":"0.00013040","RCS_SIZE":"LARGE","OBJECT_NAME":"STARLINK-4190","EPOCH":"2022-08-22T22:00:00.999936","INCLINATION":"53.2177","COUNTRY_CODE":"US","REV_AT_EPOCH":"778","MEAN_MOTION":"15.52078129","OBJECT_TYPE":"PAYLOAD","GP_ID":"210752495","FILE":"3544080","CENTER_NAME":"EARTH","PERIAPSIS":"409.776","MEAN_MOTION_DOT":"-0.01058419","APOAPSIS":"411.547","ELEMENT_SET_NO":"999","MEAN_MOTION_DDOT":"0.0000000000000","RA_OF_ASC_NODE":"150.8460","MEAN_ELEMENT_THEORY":"SGP4","TLE_LINE2":"2 53001  53.2177 150.8460 0001304  71.0116  91.0349 15.52078129  7782","CLASSIFICATION_TYPE":"U","LAUNCH_DATE":"2022-07-07","SEMIMAJOR_AXIS":"6788.796","TLE_LINE1":"1 53001U 22076R   22234.91667824 -.01058419  00000-0 -18981-1 0  9990","ARG_OF_PERICENTER":"71.0116","SITE":"AFETR","NORAD_CAT_ID":"53001","TIME_SYSTEM":"UTC","DECAY_DATE":null,"BSTAR":"-0.01898100000000","MEAN_ANOMALY":"91.0349","EPHEMERIS_TYPE":"0","REF_FRAME":"TEME","OBJECT_ID":"2022-076R"},{"ELEMENT_SET_NO":"999","APOAPSIS":"411.769","MEAN_MOTION_DOT":"-0.01058216","MEAN_MOTION_DDOT":"0.0000000000000","RA_OF_ASC_NODE":"150.7987","MEAN_MOTION":"15.52050299","GP_ID":"210752492","OBJECT_TYPE":"PAYLOAD","FILE":"3544080","CENTER_NAME":"EARTH","PERIAPSIS":"409.716","EPOCH":"2022-08-22T22:00:00.999936","INCLINATION":"53.2176","REV_AT_EPOCH":"778","COUNTRY_CODE":"US","PERIOD":"92.780","RCS_SIZE":"LARGE","ECCENTRICITY":"0.00015120","OBJECT_NAME":"STARLINK-4121","TIME_SYSTEM":"UTC","DECAY_DATE":null,"BSTAR":"-0.01899500000000","MEAN_ANOMALY":"108.2021","EPHEMERIS_TYPE":"0","OBJECT_ID":"2022-076S","REF_FRAME":"TEME","TLE_LINE1":"1 53002U 22076S   22234.91667824 -.01058216  00000-0 -18995-1 0  9991","LAUNCH_DATE":"2022-07-07","SEMIMAJOR_AXIS":"6788.878","ARG_OF_PERICENTER":"50.5663","NORAD_CAT_ID":"53002","SITE":"AFETR","TLE_LINE2":"2 53002  53.2176 150.7987 0001512  50.5663 108.2021 15.52050299  7781","CLASSIFICATION_TYPE":"U","MEAN_ELEMENT_THEORY":"SGP4"},{"OBJECT_NAME":"STARLINK-4255","ECCENTRICITY":"0.00013070","RCS_SIZE":"LARGE","PERIOD":"92.778","COUNTRY_CODE":"US","REV_AT_EPOCH":"130","INCLINATION":"53.2177","EPOCH":"2022-08-22T22:00:00.999936","CENTER_NAME":"EARTH","PERIAPSIS":"409.734","FILE":"3544179","OBJECT_TYPE":"PAYLOAD","GP_ID":"210779558","MEAN_MOTION":"15.52091945","MEAN_MOTION_DDOT":"0.0000000000000","RA_OF_ASC_NODE":"150.8696","MEAN_MOTION_DOT":"-0.01058394","ELEMENT_SET_NO":"999","APOAPSIS":"411.508","MEAN_ELEMENT_THEORY":"SGP4","TLE_LINE2":"2 53003  53.2177 150.8696 0001307  70.7146  92.9705 15.52091945  1306","CLASSIFICATION_TYPE":"U","SITE":"AFETR","NORAD_CAT_ID":"53003","ARG_OF_PERICENTER":"70.7146","SEMIMAJOR_AXIS":"6788.756","LAUNCH_DATE":"2022-07-07","TLE_LINE1":"1 53003U 22076T   22234.91667824 -.01058394  00000-0 -18971-1 0  9993","REF_FRAME":"TEME","OBJECT_ID":"2022-076T","EPHEMERIS_TYPE":"0","DECAY_DATE":null,"BSTAR":"-0.01897100000000","MEAN_ANOMALY":"92.9705","TIME_SYSTEM":"UTC"}];
